[{"OBJECT_NAME":"TRANSPORTER-12 OBJECT AZ","OBJECT_ID":"2025-009AZ","EPOCH":"2026-03-09T17:02:46.667040","MEAN_MOTION":15.30349724,"ECCENTRICITY":9.87e-5,"INCLINATION":97.3981,"RA_OF_ASC_NODE":151.9913,"ARG_OF_PERICENTER":45.3581,"MEAN_ANOMALY":314.774,"EPHEMERIS_TYPE":0,"CLASSIFICATION_TYPE":"U","NORAD_CAT_ID":62656,"ELEMENT_SET_NO":999,"REV_AT_EPOCH":6379,"BSTAR":0.00054902545,"MEAN_MOTION_DOT":0.00016057,"MEAN_MOTION_DDOT":0},{"OBJECT_NAME":"STARLINK-32885","OBJECT_ID":"2025-029L","EPOCH":"2026-03-09T17:10:13.948608","MEAN_MOTION":15.30201455,"ECCENTRICITY":8.879e-5,"INCLINATION":53.1598,"RA_OF_ASC_NODE":230.0554,"ARG_OF_PERICENTER":83.3341,"MEAN_ANOMALY":276.776,"EPHEMERIS_TYPE":0,"CLASSIFICATION_TYPE":"U","NORAD_CAT_ID":62958,"ELEMENT_SET_NO":999,"REV_AT_EPOCH":6135,"BSTAR":0.00055769595,"MEAN_MOTION_DOT":0.00016195,"MEAN_MOTION_DDOT":0}]
